CCSDS_OMM_VERS = 2.0
CREATION_DATE  = 
ORIGINATOR     = 

OBJECT_NAME    = STARLINK-36745
OBJECT_ID      = 2026-054AB
CENTER_NAME    = EARTH
REF_FRAME      = TEME
TIME_SYSTEM    = UTC
MEAN_ELEMENT_THEORY = SGP/SGP4

EPOCH          = 2026-03-30T12:00:01.999296
MEAN_MOTION    = 15.76949040
ECCENTRICITY   = .0001291
INCLINATION    = 53.1596
RA_OF_ASC_NODE = 208.1658
ARG_OF_PERICENTER = 59.7629
MEAN_ANOMALY   = 94.1978

EPHEMERIS_TYPE = 0
CLASSIFICATION_TYPE = U
NORAD_CAT_ID   = 68257
ELEMENT_SET_NO = 999
REV_AT_EPOCH   = 325
BSTAR          = -.12978E-1
MEAN_MOTION_DOT = -.1872592E-1
MEAN_MOTION_DDOT = 0

CCSDS_OMM_VERS = 2.0
CREATION_DATE  = 
ORIGINATOR     = 

OBJECT_NAME    = STARLINK-36890
OBJECT_ID      = 2026-054AC
CENTER_NAME    = EARTH
REF_FRAME      = TEME
TIME_SYSTEM    = UTC
MEAN_ELEMENT_THEORY = SGP/SGP4

EPOCH          = 2026-03-30T12:00:01.999296
MEAN_MOTION    = 15.80875368
ECCENTRICITY   = .0001356
INCLINATION    = 53.1594
RA_OF_ASC_NODE = 208.1437
ARG_OF_PERICENTER = 98.5649
MEAN_ANOMALY   = 66.2430

EPHEMERIS_TYPE = 0
CLASSIFICATION_TYPE = U
NORAD_CAT_ID   = 68258
ELEMENT_SET_NO = 999
REV_AT_EPOCH   = 325
BSTAR          = .11746E-3
MEAN_MOTION_DOT = .22547E-3
MEAN_MOTION_DDOT = 0

CCSDS_OMM_VERS = 2.0
CREATION_DATE  = 
ORIGINATOR     = 

OBJECT_NAME    = STARLINK-36323
OBJECT_ID      = 2026-054AD
CENTER_NAME    = EARTH
REF_FRAME      = TEME
TIME_SYSTEM    = UTC
MEAN_ELEMENT_THEORY = SGP/SGP4

EPOCH          = 2026-03-30T12:00:01.999296
MEAN_MOTION    = 15.80874374
ECCENTRICITY   = .000117
INCLINATION    = 53.1593
RA_OF_ASC_NODE = 208.1615
ARG_OF_PERICENTER = 74.5164
MEAN_ANOMALY   = 81.7438

EPHEMERIS_TYPE = 0
CLASSIFICATION_TYPE = U
NORAD_CAT_ID   = 68259
ELEMENT_SET_NO = 999
REV_AT_EPOCH   = 329
BSTAR          = .13339E-3
MEAN_MOTION_DOT = .25709E-3
MEAN_MOTION_DDOT = 0

CCSDS_OMM_VERS = 2.0
CREATION_DATE  = 
ORIGINATOR     = 

OBJECT_NAME    = STARLINK-37056
OBJECT_ID      = 2026-054AE
CENTER_NAME    = EARTH
REF_FRAME      = TEME
TIME_SYSTEM    = UTC
MEAN_ELEMENT_THEORY = SGP/SGP4

EPOCH          = 2026-03-30T12:00:01.999296
MEAN_MOTION    = 15.80900533
ECCENTRICITY   = .0001041
INCLINATION    = 53.1593
RA_OF_ASC_NODE = 208.1349
ARG_OF_PERICENTER = 73.8516
MEAN_ANOMALY   = 95.2172

EPHEMERIS_TYPE = 0
CLASSIFICATION_TYPE = U
NORAD_CAT_ID   = 68260
ELEMENT_SET_NO = 999
REV_AT_EPOCH   = 325
BSTAR          = -.12134E-3
MEAN_MOTION_DOT = -.2461E-3
MEAN_MOTION_DDOT = 0

CCSDS_OMM_VERS = 2.0
CREATION_DATE  = 
ORIGINATOR     = 

OBJECT_NAME    = TEN-KOH 2
OBJECT_ID      = 2025-241B
CENTER_NAME    = EARTH
REF_FRAME      = TEME
TIME_SYSTEM    = UTC
MEAN_ELEMENT_THEORY = SGP/SGP4

EPOCH          = 2026-03-30T02:20:03.111072
MEAN_MOTION    = 15.22777424
ECCENTRICITY   = .00044695
INCLINATION    = 51.6392
RA_OF_ASC_NODE = 335.8383
ARG_OF_PERICENTER = 230.2647
MEAN_ANOMALY   = 129.7937

EPHEMERIS_TYPE = 0
CLASSIFICATION_TYPE = U
NORAD_CAT_ID   = 68261
ELEMENT_SET_NO = 999
REV_AT_EPOCH   = 285
BSTAR          = .5330403E-3
MEAN_MOTION_DOT = .12314E-3
MEAN_MOTION_DDOT = 0

CCSDS_OMM_VERS = 2.0
CREATION_DATE  = 
ORIGINATOR     = 

OBJECT_NAME    = STARLINK-37162
OBJECT_ID      = 2026-055A
CENTER_NAME    = EARTH
REF_FRAME      = TEME
TIME_SYSTEM    = UTC
MEAN_ELEMENT_THEORY = SGP/SGP4

EPOCH          = 2026-03-30T12:00:01.999296
MEAN_MOTION    = 15.91554870
ECCENTRICITY   = .0000909
INCLINATION    = 53.1581
RA_OF_ASC_NODE = 233.1773
ARG_OF_PERICENTER = 71.8066
MEAN_ANOMALY   = 176.1617

EPHEMERIS_TYPE = 0
CLASSIFICATION_TYPE = U
NORAD_CAT_ID   = 68262
ELEMENT_SET_NO = 999
REV_AT_EPOCH   = 298
BSTAR          = -.36365E-2
MEAN_MOTION_DOT = -.1206242E-1
MEAN_MOTION_DDOT = .42821E-3

CCSDS_OMM_VERS = 2.0
CREATION_DATE  = 
ORIGINATOR     = 

OBJECT_NAME    = STARLINK-37156
OBJECT_ID      = 2026-055B
CENTER_NAME    = EARTH
REF_FRAME      = TEME
TIME_SYSTEM    = UTC
MEAN_ELEMENT_THEORY = SGP/SGP4

EPOCH          = 2026-03-30T12:00:01.999296
MEAN_MOTION    = 15.91643039
ECCENTRICITY   = .0000802
INCLINATION    = 53.1580
RA_OF_ASC_NODE = 233.1715
ARG_OF_PERICENTER = 71.9403
MEAN_ANOMALY   = 179.0529

EPHEMERIS_TYPE = 0
CLASSIFICATION_TYPE = U
NORAD_CAT_ID   = 68263
ELEMENT_SET_NO = 999
REV_AT_EPOCH   = 298
BSTAR          = -.36097E-2
MEAN_MOTION_DOT = -.1202846E-1
MEAN_MOTION_DDOT = .42638E-3

CCSDS_OMM_VERS = 2.0
CREATION_DATE  = 
ORIGINATOR     = 

OBJECT_NAME    = STARLINK-37163
OBJECT_ID      = 2026-055C
CENTER_NAME    = EARTH
REF_FRAME      = TEME
TIME_SYSTEM    = UTC
MEAN_ELEMENT_THEORY = SGP/SGP4

EPOCH          = 2026-03-30T12:00:01.999296
MEAN_MOTION    = 15.91813899
ECCENTRICITY   = .0000838
INCLINATION    = 53.1579
RA_OF_ASC_NODE = 233.1553
ARG_OF_PERICENTER = 70.8738
MEAN_ANOMALY   = 187.5236

EPHEMERIS_TYPE = 0
CLASSIFICATION_TYPE = U
NORAD_CAT_ID   = 68264
ELEMENT_SET_NO = 999
REV_AT_EPOCH   = 298
BSTAR          = -.35976E-2
MEAN_MOTION_DOT = -.1209368E-1
MEAN_MOTION_DDOT = .4313E-3

CCSDS_OMM_VERS = 2.0
CREATION_DATE  = 
ORIGINATOR     = 

OBJECT_NAME    = STARLINK-37133
OBJECT_ID      = 2026-055D
CENTER_NAME    = EARTH
REF_FRAME      = TEME
TIME_SYSTEM    = UTC
MEAN_ELEMENT_THEORY = SGP/SGP4

EPOCH          = 2026-03-30T12:00:01.999296
MEAN_MOTION    = 15.91726324
ECCENTRICITY   = .0000884
INCLINATION    = 53.1579
RA_OF_ASC_NODE = 233.1634
ARG_OF_PERICENTER = 74.6118
MEAN_ANOMALY   = 180.1570

EPHEMERIS_TYPE = 0
CLASSIFICATION_TYPE = U
NORAD_CAT_ID   = 68265
ELEMENT_SET_NO = 999
REV_AT_EPOCH   = 298
BSTAR          = -.36E-2
MEAN_MOTION_DOT = -.1204776E-1
MEAN_MOTION_DDOT = .42797E-3

CCSDS_OMM_VERS = 2.0
CREATION_DATE  = 
ORIGINATOR     = 

OBJECT_NAME    = STARLINK-37042
OBJECT_ID      = 2026-055E
CENTER_NAME    = EARTH
REF_FRAME      = TEME
TIME_SYSTEM    = UTC
MEAN_ELEMENT_THEORY = SGP/SGP4

EPOCH          = 2026-03-30T12:00:01.999296
MEAN_MOTION    = 15.91893683
ECCENTRICITY   = .0000965
INCLINATION    = 53.1577
RA_OF_ASC_NODE = 233.1464
ARG_OF_PERICENTER = 72.0864
MEAN_ANOMALY   = 190.8445

EPHEMERIS_TYPE = 0
CLASSIFICATION_TYPE = U
NORAD_CAT_ID   = 68266
ELEMENT_SET_NO = 999
REV_AT_EPOCH   = 298
BSTAR          = -.36223E-2
MEAN_MOTION_DOT = -.1222597E-1
MEAN_MOTION_DDOT = .44026E-3

CCSDS_OMM_VERS = 2.0
CREATION_DATE  = 
ORIGINATOR     = 

OBJECT_NAME    = STARLINK-37103
OBJECT_ID      = 2026-055F
CENTER_NAME    = EARTH
REF_FRAME      = TEME
TIME_SYSTEM    = UTC
MEAN_ELEMENT_THEORY = SGP/SGP4

EPOCH          = 2026-03-30T12:00:01.999296
MEAN_MOTION    = 15.91981534
ECCENTRICITY   = .0000836
INCLINATION    = 53.1580
RA_OF_ASC_NODE = 233.1380
ARG_OF_PERICENTER = 74.3270
MEAN_ANOMALY   = 192.5999

EPHEMERIS_TYPE = 0
CLASSIFICATION_TYPE = U
NORAD_CAT_ID   = 68267
ELEMENT_SET_NO = 999
REV_AT_EPOCH   = 298
BSTAR          = -.36325E-2
MEAN_MOTION_DOT = -.1231527E-1
MEAN_MOTION_DDOT = .44651E-3

CCSDS_OMM_VERS = 2.0
CREATION_DATE  = 
ORIGINATOR     = 

OBJECT_NAME    = STARLINK-36999
OBJECT_ID      = 2026-055G
CENTER_NAME    = EARTH
REF_FRAME      = TEME
TIME_SYSTEM    = UTC
MEAN_ELEMENT_THEORY = SGP/SGP4

EPOCH          = 2026-03-30T12:00:01.999296
MEAN_MOTION    = 15.92071432
ECCENTRICITY   = .0000817
INCLINATION    = 53.1578
RA_OF_ASC_NODE = 233.1305
ARG_OF_PERICENTER = 73.9383
MEAN_ANOMALY   = 196.6618

EPHEMERIS_TYPE = 0
CLASSIFICATION_TYPE = U
NORAD_CAT_ID   = 68268
ELEMENT_SET_NO = 999
REV_AT_EPOCH   = 298
BSTAR          = -.36135E-2
MEAN_MOTION_DOT = -.1230818E-1
MEAN_MOTION_DDOT = .44643E-3

