STARLINK-36745          
1 68257U 26054AB  26089.50002314 -.01872592  00000+0 -12978-1 0  9998
2 68257  53.1596 208.1658 0001291  59.7629  94.1978 15.76949040  3253
STARLINK-36890          
1 68258U 26054AC  26089.50002314  .00022547  00000+0  11746-3 0  9997
2 68258  53.1594 208.1437 0001356  98.5649  66.2430 15.80875368  3251
STARLINK-36323          
1 68259U 26054AD  26089.50002314  .00025709  00000+0  13339-3 0  9991
2 68259  53.1593 208.1615 0001170  74.5164  81.7438 15.80874374  3299
STARLINK-37056          
1 68260U 26054AE  26089.50002314 -.00024610  00000+0 -12134-3 0  9997
2 68260  53.1593 208.1349 0001041  73.8516  95.2172 15.80900533  3253
TEN-KOH 2               
1 68261U 25241B   26089.09725823  .00012314  00000+0  53304-3 0  9996
2 68261  51.6392 335.8383 0004469 230.2647 129.7937 15.22777424  2855
STARLINK-37162          
1 68262U 26055A   26089.50002314 -.01206242  42821-3 -36365-2 0  9996
2 68262  53.1581 233.1773 0000909  71.8066 176.1617 15.91554870  2984
STARLINK-37156          
1 68263U 26055B   26089.50002314 -.01202846  42638-3 -36097-2 0  9991
2 68263  53.1580 233.1715 0000802  71.9403 179.0529 15.91643039  2988
STARLINK-37163          
1 68264U 26055C   26089.50002314 -.01209368  43130-3 -35976-2 0  9991
2 68264  53.1579 233.1553 0000838  70.8738 187.5236 15.91813899  2987
STARLINK-37133          
1 68265U 26055D   26089.50002314 -.01204776  42797-3 -36000-2 0  9997
2 68265  53.1579 233.1634 0000884  74.6118 180.1570 15.91726324  2989
STARLINK-37042          
1 68266U 26055E   26089.50002314 -.01222597  44026-3 -36223-2 0  9993
2 68266  53.1577 233.1464 0000965  72.0864 190.8445 15.91893683  2981
STARLINK-37103          
1 68267U 26055F   26089.50002314 -.01231527  44651-3 -36325-2 0  9994
2 68267  53.1580 233.1380 0000836  74.3270 192.5999 15.91981534  2982
STARLINK-36999          
1 68268U 26055G   26089.50002314 -.01230818  44643-3 -36135-2 0  9997
2 68268  53.1578 233.1305 0000817  73.9383 196.6618 15.92071432  2987
